P/2015 PD229 (Cameron-ISON),e,2.0263,342.6324,352.4916,7.184015,0.0511862,0.32818099,108.9032,06/13.0/2021,2000,g 11.5,2.0
# From MPC 99819
P/2015 Q1 (Scotti),e,22.3848,202.8690,199.8351,3.474913,0.1521557,0.47813686,322.6317,06/13.0/2021,2000,g 14.0,4.0
# From MPC 96867
P/2015 Q2 (Pimentel),e,146.5061,228.4396,244.5193,7.349316,0.0494691,0.75069637,104.2419,06/13.0/2021,2000,g 15.5,4.0
# From MPC 98562
P/2015 R1 (PANSTARRS),e,22.6822,48.4079,300.4553,5.880206,0.0691218,0.63424831,150.4316,06/13.0/2021,2000,g 14.0,4.0
# From MPC 95734
P/2015 R2 (PANSTARRS),e,15.4823,168.5978,149.7783,4.487856,0.1036682,0.45291570,227.2260,06/13.0/2021,2000,g 14.5,4.0
# From MPC117068
C/2015 T2 (PANSTARRS),e,124.5545,51.0146,30.6547,1832,0.0000126,0.99621462,0.0000,05/18.2574/2017,2000,g  8.0,4.0
# From MPC 96280
P/2015 T3 (PANSTARRS),e,13.0937,120.5019,178.6330,4.326181,0.1095335,0.50818108,359.9227,12/21.0/2014,2000,g 14.0,4.0
# From MPC102953
C/2015 T4 (PANSTARRS),e,88.0162,251.8477,270.0759,79.58928,0.0013881,0.97109554,0.0000,06/16.6172/2016,2000,g 11.0,4.0
# From MPC102953
P/2015 TO19 (Lemmon-PANSTARRS),e,6.4995,321.6512,89.1169,4.555354,0.1013727,0.35834807,195.2053,06/13.0/2021,2000,g 14.0,4.0
# From MPC110080
P/2015 TP200 (LINEAR),e,8.7784,7.0047,82.5688,7.272844,0.0502513,0.53511176,84.9190,06/13.0/2021,2000,g 11.0,4.0
# From MPC101097
C/2015 TQ209 (LINEAR),e,11.3055,223.3882,282.1114,551.6131,0.0000761,0.99743355,0.0000,08/25.0486/2016,2000,g 10.5,4.0
# From MPC115881
C/2015 V1 (PANSTARRS),e,139.2247,197.1749,179.6226,2137,0.0000100,0.99800172,0.0000,12/16.6831/2017,2000,g  6.5,4.0
# From MPC112390
C/2015 V2 (Johnson),h,06/11.6957/2017,49.8432,69.9238,165.0007,1.001842,1.645556,2000,5.0,4.0
# From MPC104791
C/2015 V4 (PANSTARRS),e,60.7931,179.9439,306.9381,18.46223,0.0124245,0.70435467,21.7422,06/13.0/2021,2000,g  8.5,4.0
# From MPC115881
C/2015 VL62 (Lemmon-Yeung-PANSTARRS),h,08/27.8624/2017,165.8182,95.1201,128.8423,1.001340,2.719945,2000,8.0,4.0
# From MPC101098
P/2015 W2 (Catalina),e,11.6071,294.2416,117.4886,7.294438,0.0500284,0.63415615,104.1520,06/13.0/2021,2000,g 13.0,4.0
# From MPC101098
P/2015 X1 (PANSTARRS),e,12.1516,161.7648,218.9070,3.632889,0.1423396,0.41908082,295.7933,06/13.0/2021,2000,g 16.0,4.0
# From MPEC 2020-AA5
C/2015 XY1 (Lemmon),h,04/27.1583/2018,148.8536,281.6148,196.1995,1.002062,7.923054,2000,5.5,4.0
# From MPC 97498
P/2015 X3 (PANSTARRS),e,24.3902,77.3033,306.6660,5.008413,0.0879334,0.43915722,187.7593,06/13.0/2021,2000,g 15.0,4.0
# From MPC119995
C/2015 X5 (PANSTARRS),h,12/28.8676/2017,124.3085,122.3436,27.6248,1.001209,6.795958,2000,7.5,4.0
# From MPC115881
P/2015 X6 (PANSTARRS),e,4.5646,106.9466,329.8568,2.753508,0.2157121,0.17266842,51.5339,06/13.0/2021,2000,g 16.0,4.0
# From MPC109143
C/2015 X7 (ATLAS),e,57.5593,139.9329,348.3416,6107,0.0000021,0.99939762,0.0000,07/29.0065/2016,2000,g  9.0,4.0
# From MPC119995
C/2016 A1 (PANSTARRS),h,11/22.1504/2017,121.2054,128.2064,10.2019,1.000800,5.320852,2000,6.0,4.0
# From MPC100282
P/2016 A2 (Christensen),e,26.4047,291.6166,141.4301,4.752141,0.0951415,0.27054885,208.2286,06/13.0/2021,2000,g 11.5,4.0
# From MPC115881
P/2016 A3 (PANSTARRS),e,8.5100,187.2457,341.0229,7.888576,0.0444842,0.38670689,67.0138,06/13.0/2021,2000,g 10.0,4.0
# From MPC102098
P/2016 A7 (PANSTARRS),e,16.6140,221.4933,352.6140,5.032804,0.0872949,0.56486799,169.0456,06/13.0/2021,2000,g 16.0,4.0
# From MPC106345
C/2016 A8 (LINEAR),e,148.2430,111.3560,130.4716,34.36791,0.0048919,0.94494881,8.5557,06/13.0/2021,2000,g 12.0,4.0
# From MPC107048
C/2016 B1 (NEOWISE),e,50.4385,232.0279,8.6852,435.2845,0.0001085,0.99260780,0.0000,12/04.3234/2016,2000,g  9.5,4.0
# From MPC109143
P/2016 BA14 (PANSTARRS),e,18.8937,180.5265,351.8880,3.025360,0.1873003,0.66522185,359.1904,06/13.0/2021,2000,g 21.0,4.0
# From MPC110494
C/2016 E1 (PANSTARRS),h,06/04.3869/2017,131.8824,233.0956,47.4787,1.006400,8.178023,2000,6.5,4.0
# From MPC102098
P/2016 G1 (PANSTARRS),e,10.9694,204.0254,111.1815,2.583263,0.2373838,0.21113892,19.6920,06/13.0/2021,2000,g 14.0,4.0
# From MPEC 2017-D91
P/2016 J1-A (PANSTARRS),e,14.3272,199.8110,46.9521,3.173224,0.1743625,0.22798455,315.9623,06/13.0/2021,2000,g 16.5,4.0
# From MPEC 2017-A77
P/2016 J1-B (PANSTARRS),e,14.3299,199.8158,46.8432,3.172853,0.1743930,0.22783523,316.0924,06/13.0/2021,2000,g 17.0,4.0
# From MPC104792
C/2016 K1 (LINEAR),h,07/13.6821/2016,90.9469,325.6108,18.3373,1.000311,2.296724,2000,13.0,4.0
# From MPC119995
C/2016 M1 (PANSTARRS),e,90.9749,92.2191,209.9155,13084,0.0000007,0.99983084,0.0000,08/10.4594/2018,2000,g  5.0,4.0
# From MPC115881
C/2016 N4 (MASTER),e,72.6333,353.9924,55.9422,3095,0.0000057,0.99896681,0.0000,09/16.7980/2017,2000,g  8.5,4.0
# From MPC119995
C/2016 N6 (PANSTARRS),e,105.8415,298.9844,162.6932,1310,0.0000208,0.99796617,0.0000,07/17.9391/2018,2000,g  7.0,4.0
# From MPC102099
P/2016 P1 (PANSTARRS),e,24.4563,319.5647,270.0983,3.193308,0.1727201,0.28907241,0.4719,06/13.0/2021,2000,g 15.0,4.0
# From MPC102099
C/2016 P4 (PANSTARRS),e,29.8803,320.7236,356.2646,420.0308,0.0001145,0.98595380,0.0000,10/18.7803/2016,2000,g 10.5,4.0
# From MPC118093
C/2016 Q2 (PANSTARRS),h,05/11.9080/2021,109.3883,322.2956,84.5303,1.000745,7.081857,2000,6.0,4.0
# From MPC102955
C/2016 Q4 (Kowalski),e,7.2549,271.2926,99.4701,16.94999,0.0141237,0.58187238,17.3953,06/13.0/2021,2000,g  7.0,4.0
# From MPC119995
C/2016 R2 (PANSTARRS),e,58.2450,80.5544,33.1427,499.7277,0.0000882,0.99479441,0.0000,05/09.0393/2018,2000,g  7.0,4.0
# From MPC102099
C/2016 R3 (Borisov),e,53.0270,78.8043,118.1585,197.2387,0.0003558,0.99769755,0.0000,10/09.8753/2016,2000,g 18.0,4.0
# From MPC109144
P/2016 R4 (Gibbs),e,10.8751,168.2663,174.0443,5.331615,0.0800601,0.47635912,143.0300,06/13.0/2021,2000,g 12.5,4.0
# From MPC105543
P/2016 S1 (PANSTARRS),e,94.6858,227.5656,273.2798,8.278245,0.0413806,0.70996288,64.1423,06/13.0/2021,2000,g 12.0,4.0
# From MPC105238
C/2016 T1 (Matheny),e,129.8511,56.3547,137.4965,125.5174,0.0007009,0.98162952,0.0000,02/01.4642/2017,2000,g 14.5,4.0
# From MPC107685
C/2016 T2 (Matheny),e,81.4039,339.1891,92.1918,99.30405,0.0009960,0.98084024,0.0000,12/29.5543/2016,2000,g 14.5,4.0
# From MPC110082
C/2016 T3 (PANSTARRS),e,22.6863,271.7184,194.6170,130.3656,0.0006622,0.97970427,0.0000,09/06.4182/2017,2000,g 10.5,4.0
# From MPC103847
C/2016 U1 (NEOWISE),h,01/13.6980/2017,46.2636,61.5912,162.8074,1.000404,0.324007,2000,17.0,4.0
# From MPC106345
C/2016 VZ18 (PANSTARRS),e,23.9838,98.9220,36.3924,160.9388,0.0004827,0.99431968,0.0000,03/05.2022/2017,2000,g 19.5,4.0
# From MPC106345
P/2016 WM48 (Lemmon),e,117.4715,59.9066,36.0893,8.165067,0.0422439,0.78375128,66.3436,06/13.0/2021,2000,g 15.0,4.0
# From MPC119995
C/2016 X1 (Lemmon),e,26.4529,256.3980,224.4882,1254,0.0000222,0.99396921,0.0000,04/28.2784/2019,2000,g  6.0,4.0
# From MPC108594
C/2017 A1 (PANSTARRS),e,49.7949,121.0405,1.9889,75.72081,0.0014958,0.96976936,2.2272,06/13.0/2021,2000,g 13.0,4.0
# From MPC108594
C/2017 A3 (Elenin),e,98.5226,97.8870,303.9734,43.41413,0.0034455,0.91145849,5.4924,06/13.0/2021,2000,g  9.5,4.0
# From MPC114598
C/2017 AB5 (PANSTARRS),e,32.4455,42.6296,78.3166,2270,0.0000091,0.99594263,0.0000,02/15.0132/2018,2000,g  5.5,4.0
# From MPC119995
C/2017 B3 (LINEAR),h,02/02.4870/2019,54.1660,2.1786,284.8029,1.001403,3.923965,2000,6.0,4.0
# From MPC103847
P/2017 B4 (PANSTARRS),e,20.0584,121.4578,11.0197,4.410520,0.1064068,0.36495152,359.9130,01/05.0/2017,2000,g 14.5,4.0
# From MPC104793
C/2017 C1 (NEOWISE),e,65.7656,357.5702,110.0351,20.56818,0.0105660,0.92718786,16.9739,06/13.0/2021,2000,g 18.0,4.0
# From MPC107685
C/2017 C2 (PANSTARRS),e,118.5850,249.7501,138.5594,95.70233,0.0010527,0.97469569,0.0000,01/21.3557/2017,2000,g 14.0,4.0
# From MPC104793
P/2017 D1 (Fuls),e,20.7561,82.1804,8.0178,4.829668,0.0928599,0.43625521,168.5951,06/13.0/2021,2000,g 14.0,4.0
# From MPC112391
C/2017 D2 (Barros),e,31.2582,330.9475,334.5657,6339,0.0000020,0.99960680,0.0000,07/14.8870/2017,2000,g 11.0,4.0
# From MPC114598
C/2017 D3 (ATLAS),h,04/27.4449/2017,125.5881,186.6933,340.8522,1.002228,4.970984,2000,8.0,4.0
# From MPC110495
P/2017 D4 (PANSTARRS),e,10.5321,264.9374,212.2523,7.559764,0.0474178,0.62831033,82.6087,06/13.0/2021,2000,g 13.0,4.0
# From MPC104794
C/2017 D5 (PANSTARRS),e,131.0419,92.6975,287.6814,113.9704,0.0008101,0.98107133,0.0000,01/09.6800/2017,2000,g 16.0,4.0
# From MPC106346
C/2017 E1 (Borisov),h,04/10.6047/2017,14.5728,142.5614,152.7323,1.003165,0.903585,2000,14.0,4.0
# From MPC115882
C/2017 E3 (PANSTARRS),h,06/07.7559/2017,70.6470,220.7621,334.5052,1.006373,5.938318,2000,6.5,4.0
# From MPC105239
C/2017 E4 (Lovejoy),h,04/23.5751/2017,88.0380,222.9315,87.0663,1.001494,0.491051,2000,17.0,4.0
# From MPC111769
C/2017 F1 (Lemmon),h,11/29.7586/2017,146.4605,158.7884,64.7412,1.002967,4.496241,2000,10.5,4.0
# From MPC114598
C/2017 F2 (PANSTARRS),h,11/26.9329/2017,42.5320,38.6813,135.0084,1.003055,6.931078,2000,7.5,4.0
# From MPC104794
P/2017 G1 (PANSTARRS),e,4.7755,249.6326,224.5007,7.284376,0.0501321,0.65292846,93.8971,06/13.0/2021,2000,g 13.5,4.0
# From MPC108595
P/2017 G2 (PANSTARRS),e,47.9467,79.7892,105.5333,8.063046,0.0430482,0.64791673,62.9846,06/13.0/2021,2000,g 13.0,4.0
# From MPC109144
C/2017 G3 (PANSTARRS),e,159.0491,279.4721,73.0995,315.0675,0.0001762,0.99178943,0.0000,04/16.0537/2017,2000,g 14.0,4.0
# From MPC115882
C/2017 K1 (PANSTARRS),h,03/17.7867/2018,154.0172,225.6828,4.4258,1.002834,7.289424,2000,7.0,4.0
# From MPC119995
C/2017 K2 (PANSTARRS),h,12/19.7450/2022,87.5525,88.2446,236.1878,1.000573,1.797571,2000,1.5,4.0
# From MPC106346
P/2017 K3 (Gasparovic),e,4.2729,354.2787,253.5082,5.583280,0.0747085,0.58021859,110.1244,06/13.0/2021,2000,g 14.5,4.0
# From MPC114598
C/2017 K4 (ATLAS),e,16.6788,298.8742,15.2724,28.58446,0.0064492,0.90718150,8.0710,06/13.0/2021,2000,g 10.0,4.0
# From MPC119995
C/2017 K5 (PANSTARRS),h,03/26.8165/2020,82.2332,102.3715,172.0161,1.006070,7.681006,2000,5.0,4.0
# From MPC114599
